OBJECT_NAME,OBJECT_ID,EPOCH,MEAN_MOTION,ECCENTRICITY,INCLINATION,RA_OF_ASC_NODE,ARG_OF_PERICENTER,MEAN_ANOMALY,EPHEMERIS_TYPE,CLASSIFICATION_TYPE,NORAD_CAT_ID,ELEMENT_SET_NO,REV_AT_EPOCH,BSTAR,MEAN_MOTION_DOT,MEAN_MOTION_DDOT
ONEWEB-0395,2021-132G,2026-06-19T07:16:48.774720,13.11416498,.00020444,87.8882,20.6460,88.8817,271.2545,0,U,50475,999,21599,-.19408998E-2,-.675E-5,0
ONEWEB-0396,2021-132H,2026-06-19T08:49:25.745376,13.18685151,.0001921,87.9173,335.0208,88.3358,271.7994,0,U,50476,999,22192,.4566377E-5,.15E-6,0
ONEWEB-0397,2021-132J,2026-06-19T09:11:17.071872,13.18685398,.00018079,87.9172,335.0178,85.4972,274.6367,0,U,50477,999,22190,.66972283E-4,.39E-6,0
ONEWEB-0398,2021-132K,2026-06-19T13:49:54.919776,13.11415796,.00019986,87.8891,20.5823,94.7838,265.3518,0,U,50478,999,21592,.15349379E-2,.557E-5,0
ONEWEB-0399,2021-132L,2026-06-19T13:30:23.316768,13.11417744,.00021058,87.8893,20.5960,73.8778,286.2581,0,U,50479,999,21591,.1083258E-2,.397E-5,0
ONEWEB-0400,2021-132M,2026-06-18T23:33:24.686208,13.18685820,.00018902,87.9171,335.0872,97.6868,262.4479,0,U,50480,999,22184,.450662E-6,.13E-6,0
ONEWEB-0401,2021-132N,2026-06-19T20:40:51.063168,13.18685617,.0001617,87.9174,334.9096,90.5856,269.5462,0,U,50481,999,22196,.43841E-4,.3E-6,0
ONEWEB-0402,2021-132P,2026-06-19T08:51:52.200288,13.18685724,.0001448,87.9171,334.9967,82.4214,277.7082,0,U,50482,999,22192,-.48492016E-4,-.6E-7,0
ONEWEB-0403,2021-132Q,2026-06-19T04:00:29.676096,13.18685105,.00019701,87.9171,335.0613,90.5763,269.5594,0,U,50483,999,22185,-.1378734E-5,.12E-6,0
ONEWEB-0404,2021-132R,2026-06-19T07:33:54.664128,13.11418898,.00021178,87.8888,20.6438,82.3673,277.7696,0,U,50484,999,21597,-.10348362E-2,-.354E-5,0
ONEWEB-0405,2021-132S,2026-06-19T11:36:58.161600,13.18687224,.00021054,87.9175,334.9827,105.1395,254.9970,0,U,50485,999,22229,.20614812E-3,.94E-6,0
ONEWEB-0406,2021-132T,2026-06-19T11:24:49.702464,13.18685485,.00022851,87.9170,335.0006,84.8244,275.3149,0,U,50486,999,22192,.22059909E-3,.1E-5,0
ONEWEB-0407,2021-132U,2026-06-19T03:58:05.286144,13.18686997,.00016656,87.9172,335.0547,97.0953,263.0368,0,U,50487,999,22182,-.3498601E-4,-.1E-7,0
ONEWEB-0409,2021-132V,2026-06-19T07:31:27.377184,13.11418127,.00020927,87.8889,20.6324,86.1313,274.0055,0,U,50488,999,21586,-.16947275E-2,-.588E-5,0
ONEWEB-0412,2021-132W,2026-06-19T09:08:51.159552,13.18685548,.00016084,87.9169,335.0199,86.4266,273.7050,0,U,50489,999,22194,.1351738E-5,.13E-6,0
ONEWEB-0413,2021-132X,2026-06-19T09:16:09.674976,13.18686792,.00015684,87.9160,335.0179,93.4268,266.7044,0,U,50490,999,22188,.20802922E-3,.95E-6,0
ONEWEB-0414,2021-132Y,2026-06-19T08:54:17.484480,13.18685636,.00018058,87.9174,335.0027,88.2013,271.9326,0,U,50491,999,22191,.35954195E-4,.27E-6,0
ONEWEB-0417,2021-132Z,2026-06-19T09:06:25.756992,13.18685696,.00020659,87.9163,335.0203,89.9486,270.1883,0,U,50492,999,22189,.13444427E-3,.66E-6,0
ONEWEB-0418,2021-132AA,2026-06-19T20:16:21.309312,13.18685536,.0002133,87.9171,334.9276,90.9743,269.1633,0,U,50493,999,22201,-.22536E-4,.4E-7,0
ONEWEB-0419,2021-132AB,2026-06-19T11:36:53.527968,13.18665763,.00021253,87.9173,334.9991,96.7446,263.3928,0,U,50494,999,22188,.15160232E-3,.73E-6,0
ONEWEB-0420,2021-132AC,2026-06-19T08:56:42.662400,13.18686045,.00017027,87.9163,335.0239,97.8870,262.2455,0,U,50495,999,22186,-.13590145E-4,.8E-7,0
ONEWEB-0421,2021-132AD,2026-06-19T08:47:00.216672,13.18684990,.00017505,87.9167,335.0231,82.0249,278.1082,0,U,50496,999,22190,.34488263E-4,.27E-6,0
ONEWEB-0424,2021-132AE,2026-06-19T20:35:59.845056,13.18685882,.0002097,87.9172,334.9228,99.8143,260.3226,0,U,50497,999,22199,.64975E-4,.39E-6,0
ONEWEB-0426,2021-132AF,2026-06-19T12:19:26.613408,13.18684132,.00021496,87.9172,334.9828,75.3549,284.7822,0,U,50498,999,22189,.19158729E-4,.2E-6,0
ONEWEB-0427,2021-132AG,2026-06-19T11:27:15.591456,13.18684977,.00020088,87.9173,334.9788,89.8107,270.3256,0,U,50499,999,22191,.19644178E-3,.9E-6,0
ONEWEB-0429,2021-132AH,2026-06-19T20:14:08.458944,13.18686796,.0001703,87.9167,334.9303,95.1444,264.9883,0,U,50500,999,22193,.75169E-4,.43E-6,0
ONEWEB-0430,2021-132AJ,2026-06-19T09:01:33.938400,13.18686196,.00018539,87.9164,335.0217,101.7716,258.3625,0,U,50501,999,22191,-.43456612E-4,-.4E-7,0
ONEWEB-0432,2021-132AK,2026-06-19T11:57:02.212128,13.17154800,.00022539,87.9170,334.9765,107.6970,252.4407,0,U,50502,999,22188,.79560694E-4,.44E-6,0
ONEWEB-0440,2021-132AL,2026-06-19T04:02:55.265280,13.18685298,.00015659,87.9171,335.0591,88.1572,271.9739,0,U,50503,999,22183,.30604955E-4,.25E-6,0
ONEWEB-0450,2021-132AM,2026-06-19T00:14:53.436480,13.18685764,.00017108,87.9163,335.0955,98.0399,262.0927,0,U,50504,999,22184,-.21011545E-3,-.7E-6,0
