ONEWEB-0395             
1 50475U 21132G   26170.30334230 -.00000675  00000+0 -19409-2 0  9998
2 50475  87.8882  20.6460 0002044  88.8817 271.2545 13.11416498215992
ONEWEB-0396             
1 50476U 21132H   26170.36765909  .00000015  00000+0  45664-5 0  9997
2 50476  87.9173 335.0208 0001921  88.3358 271.7994 13.18685151221922
ONEWEB-0397             
1 50477U 21132J   26170.38283648  .00000039  00000+0  66972-4 0  9995
2 50477  87.9172 335.0178 0001807  85.4972 274.6367 13.18685398221908
ONEWEB-0398             
1 50478U 21132K   26170.57633009  .00000557  00000+0  15349-2 0  9992
2 50478  87.8891  20.5823 0001998  94.7838 265.3518 13.11415796215920
ONEWEB-0399             
1 50479U 21132L   26170.56276987  .00000397  00000+0  10833-2 0  9995
2 50479  87.8893  20.5960 0002105  73.8778 286.2581 13.11417744215913
ONEWEB-0400             
1 50480U 21132M   26169.98153572  .00000013  00000+0  45066-6 0  9990
2 50480  87.9171 335.0872 0001890  97.6868 262.4479 13.18685820221845
ONEWEB-0401             
1 50481U 21132N   26170.86170212  .00000030  00000+0  43841-4 0  9996
2 50481  87.9174 334.9096 0001617  90.5856 269.5462 13.18685617221968
ONEWEB-0402             
1 50482U 21132P   26170.36935417 -.00000006  00000+0 -48492-4 0  9990
2 50482  87.9171 334.9967 0001448  82.4214 277.7082 13.18685724221927
ONEWEB-0403             
1 50483U 21132Q   26170.16701014  .00000012  00000+0 -13787-5 0  9999
2 50483  87.9171 335.0613 0001970  90.5763 269.5594 13.18685105221859
ONEWEB-0404             
1 50484U 21132R   26170.31521602 -.00000354  00000+0 -10348-2 0  9997
2 50484  87.8888  20.6438 0002117  82.3673 277.7696 13.11418898215975
ONEWEB-0405             
1 50485U 21132S   26170.48400650  .00000094  00000+0  20615-3 0  9993
2 50485  87.9175 334.9827 0002105 105.1395 254.9970 13.18687224222294
ONEWEB-0406             
1 50486U 21132T   26170.47557526  .00000100  00000+0  22060-3 0  9992
2 50486  87.9170 335.0006 0002285  84.8244 275.3149 13.18685485221927
ONEWEB-0407             
1 50487U 21132U   26170.16533896 -.00000001  00000+0 -34986-4 0  9996
2 50487  87.9172 335.0547 0001665  97.0953 263.0368 13.18686997221829
ONEWEB-0409             
1 50488U 21132V   26170.31351131 -.00000588  00000+0 -16947-2 0  9999
2 50488  87.8889  20.6324 0002092  86.1313 274.0055 13.11418127215861
ONEWEB-0412             
1 50489U 21132W   26170.38114768  .00000013  00000+0  13517-5 0  9994
2 50489  87.9169 335.0199 0001608  86.4266 273.7050 13.18685548221946
ONEWEB-0413             
1 50490U 21132X   26170.38622309  .00000095  00000+0  20803-3 0  9995
2 50490  87.9160 335.0179 0001568  93.4268 266.7044 13.18686792221882
ONEWEB-0414             
1 50491U 21132Y   26170.37103570  .00000027  00000+0  35954-4 0  9998
2 50491  87.9174 335.0027 0001805  88.2013 271.9326 13.18685636221915
ONEWEB-0417             
1 50492U 21132Z   26170.37946478  .00000066  00000+0  13444-3 0  9993
2 50492  87.9163 335.0203 0002065  89.9486 270.1883 13.18685696221893
ONEWEB-0418             
1 50493U 21132AA  26170.84469108  .00000004  00000+0 -22536-4 0  9992
2 50493  87.9171 334.9276 0002133  90.9743 269.1633 13.18685536222014
ONEWEB-0419             
1 50494U 21132AB  26170.48395287  .00000073  00000+0  15160-3 0  9998
2 50494  87.9173 334.9991 0002125  96.7446 263.3928 13.18665763221883
ONEWEB-0420             
1 50495U 21132AC  26170.37271600  .00000008  00000+0 -13590-4 0  9994
2 50495  87.9163 335.0239 0001702  97.8870 262.2455 13.18686045221860
ONEWEB-0421             
1 50496U 21132AD  26170.36597473  .00000027  00000+0  34488-4 0  9992
2 50496  87.9167 335.0231 0001750  82.0249 278.1082 13.18684990221900
ONEWEB-0424             
1 50497U 21132AE  26170.85833154  .00000039  00000+0  64975-4 0  9993
2 50497  87.9172 334.9228 0002097  99.8143 260.3226 13.18685882221998
ONEWEB-0426             
1 50498U 21132AF  26170.51350247  .00000020  00000+0  19159-4 0  9998
2 50498  87.9172 334.9828 0002149  75.3549 284.7822 13.18684132221890
ONEWEB-0427             
1 50499U 21132AG  26170.47726379  .00000090  00000+0  19644-3 0  9992
2 50499  87.9173 334.9788 0002008  89.8107 270.3256 13.18684977221913
ONEWEB-0429             
1 50500U 21132AH  26170.84315346  .00000043  00000+0  75169-4 0  9997
2 50500  87.9167 334.9303 0001703  95.1444 264.9883 13.18686796221935
ONEWEB-0430             
1 50501U 21132AJ  26170.37608725 -.00000004  00000+0 -43457-4 0  9996
2 50501  87.9164 335.0217 0001853 101.7716 258.3625 13.18686196221914
ONEWEB-0432             
1 50502U 21132AK  26170.49794227  .00000044  00000+0  79561-4 0  9990
2 50502  87.9170 334.9765 0002253 107.6970 252.4407 13.17154800221880
ONEWEB-0440             
1 50503U 21132AL  26170.16869520  .00000025  00000+0  30605-4 0  9999
2 50503  87.9171 335.0591 0001565  88.1572 271.9739 13.18685298221837
ONEWEB-0450             
1 50504U 21132AM  26170.01034070 -.00000070  00000+0 -21012-3 0  9991
2 50504  87.9163 335.0955 0001710  98.0399 262.0927 13.18685764221841
